{
  "norad_id": 67722,
  "name": "STARLINK-36796",
  "history": [
    {
      "epoch": "2026-03-28T21:09:12.119328Z",
      "apogee_km": 466.19117197773176,
      "perigee_km": 464.8146422468144,
      "latitude_deg": -8.412064632740649e-06,
      "longitude_deg": -1.4355699414396799,
      "height_km": 468.4626602408012,
      "semi_major_axis_km": 6843.639907112272,
      "eccentricity": 0.00010057,
      "inclination_deg": 97.2862,
      "raan_deg": 142.1604,
      "arg_perigee_deg": 77.3545,
      "mean_anomaly_deg": 282.781,
      "mean_motion_rev_day": 15.33458534
    },
    {
      "epoch": "2026-03-29T04:00:01.999584Z",
      "apogee_km": 466.0605747693462,
      "perigee_km": 465.12161527470835,
      "latitude_deg": 45.546993758429146,
      "longitude_deg": 83.3026503251587,
      "height_km": 472.43641162881124,
      "semi_major_axis_km": 6843.7280950220265,
      "eccentricity": 6.86e-05,
      "inclination_deg": 97.2852,
      "raan_deg": 142.4421,
      "arg_perigee_deg": 65.2931,
      "mean_anomaly_deg": 68.7768,
      "mean_motion_rev_day": 15.33428894
    },
    {
      "epoch": "2026-03-30T04:00:01.999584Z",
      "apogee_km": 466.02357698430205,
      "perigee_km": 465.1667417179515,
      "latitude_deg": -69.72291284758175,
      "longitude_deg": 55.73143255190268,
      "height_km": 492.12258398648476,
      "semi_major_axis_km": 6843.732159351127,
      "eccentricity": 6.26e-05,
      "inclination_deg": 97.2845,
      "raan_deg": 143.4278,
      "arg_perigee_deg": 79.566,
      "mean_anomaly_deg": 171.2899,
      "mean_motion_rev_day": 15.33427528
    },
    {
      "epoch": "2026-03-30T06:00:02.000160Z",
      "apogee_km": 465.9255815900151,
      "perigee_km": 465.1471821795585,
      "latitude_deg": -9.529176493675134,
      "longitude_deg": -132.92036794445036,
      "height_km": 470.4466837407246,
      "semi_major_axis_km": 6843.673381884786,
      "eccentricity": 5.687e-05,
      "inclination_deg": 97.2844,
      "raan_deg": 143.5097,
      "arg_perigee_deg": 91.3085,
      "mean_anomaly_deg": 259.2739,
      "mean_motion_rev_day": 15.33447283
    },
    {
      "epoch": "2026-03-30T14:00:03.000384Z",
      "apogee_km": 466.1301868028131,
      "perigee_km": 465.4908252268024,
      "latitude_deg": 29.35307632702379,
      "longitude_deg": 101.7519554094815,
      "height_km": 469.76223536244555,
      "semi_major_axis_km": 6843.947506014808,
      "eccentricity": 4.671e-05,
      "inclination_deg": 97.2846,
      "raan_deg": 143.8372,
      "arg_perigee_deg": 146.8611,
      "mean_anomaly_deg": 242.7076,
      "mean_motion_rev_day": 15.33355154
    },
    {
      "epoch": "2026-03-30T22:00:00.999936Z",
      "apogee_km": 466.15719146645915,
      "perigee_km": 465.12487598785174,
      "latitude_deg": 67.34572947094847,
      "longitude_deg": -31.87080277725738,
      "height_km": 476.8418356518628,
      "semi_major_axis_km": 6843.778033727155,
      "eccentricity": 7.542e-05,
      "inclination_deg": 97.2844,
      "raan_deg": 144.1673,
      "arg_perigee_deg": 92.0666,
      "mean_anomaly_deg": 336.3349,
      "mean_motion_rev_day": 15.3341211
    },
    {
      "epoch": "2026-03-31T20:00:01.999008Z",
      "apogee_km": 466.1373873411958,
      "perigee_km": 464.9370068870221,
      "latitude_deg": 81.48362246482645,
      "longitude_deg": -42.24263711442724,
      "height_km": 478.44441389619607,
      "semi_major_axis_km": 6843.674197114109,
      "eccentricity": 8.77e-05,
      "inclination_deg": 97.2849,
      "raan_deg": 145.0713,
      "arg_perigee_deg": 101.5299,
      "mean_anomaly_deg": 343.9657,
      "mean_motion_rev_day": 15.33447009
    },
    {
      "epoch": "2026-04-01T20:41:14.097408Z",
      "apogee_km": 466.43878488503924,
      "perigee_km": 464.60605289266005,
      "latitude_deg": 1.3323428738367154e-06,
      "longitude_deg": 5.556553750606853,
      "height_km": 468.8181195500406,
      "semi_major_axis_km": 6843.659418888849,
      "eccentricity": 0.0001339,
      "inclination_deg": 97.2834,
      "raan_deg": 146.0842,
      "arg_perigee_deg": 101.69,
      "mean_anomaly_deg": 258.4493,
      "mean_motion_rev_day": 15.33451976
    },
    {
      "epoch": "2026-04-02T02:57:05.785632Z",
      "apogee_km": 466.184886745561,
      "perigee_km": 464.69545061057124,
      "latitude_deg": 6.94235245255743e-05,
      "longitude_deg": -88.40889028327524,
      "height_km": 468.74092849316514,
      "semi_major_axis_km": 6843.577168678066,
      "eccentricity": 0.00010882,
      "inclination_deg": 97.2839,
      "raan_deg": 146.3414,
      "arg_perigee_deg": 104.8043,
      "mean_anomaly_deg": 255.3321,
      "mean_motion_rev_day": 15.33479621
    },
    {
      "epoch": "2026-04-02T21:44:40.877088Z",
      "apogee_km": 465.76038378797057,
      "perigee_km": 464.8540380366785,
      "latitude_deg": 4.979926869885195e-05,
      "longitude_deg": -10.30630605084602,
      "height_km": 468.0577138886729,
      "semi_major_axis_km": 6843.444210912325,
      "eccentricity": 6.622e-05,
      "inclination_deg": 97.2823,
      "raan_deg": 147.112,
      "arg_perigee_deg": 37.196,
      "mean_anomaly_deg": 322.9329,
      "mean_motion_rev_day": 15.33524311
    },
    {
      "epoch": "2026-04-03T16:32:19.555872Z",
      "apogee_km": 467.14710381126133,
      "perigee_km": 464.18784275701273,
      "latitude_deg": 3.195402353101768e-07,
      "longitude_deg": 67.78279331681091,
      "height_km": 468.4441212802189,
      "semi_major_axis_km": 6843.804473284136,
      "eccentricity": 0.0002162,
      "inclination_deg": 97.2824,
      "raan_deg": 147.8841,
      "arg_perigee_deg": 77.039,
      "mean_anomaly_deg": 283.1094,
      "mean_motion_rev_day": 15.33403224
    },
    {
      "epoch": "2026-04-04T20:43:45.624000Z",
      "apogee_km": 466.1274430069989,
      "perigee_km": 464.91611540307986,
      "latitude_deg": 2.998390071641152e-06,
      "longitude_deg": 4.9248291768390535,
      "height_km": 468.6034996033825,
      "semi_major_axis_km": 6843.6587792050395,
      "eccentricity": 8.85e-05,
      "inclination_deg": 97.2834,
      "raan_deg": 149.0425,
      "arg_perigee_deg": 87.2594,
      "mean_anomaly_deg": 272.875,
      "mean_motion_rev_day": 15.33452191
    },
    {
      "epoch": "2026-04-05T13:57:23.007456Z",
      "apogee_km": 465.69642321020456,
      "perigee_km": 465.1414108253348,
      "latitude_deg": 2.888976827021417e-05,
      "longitude_deg": 106.51857047168257,
      "height_km": 468.70672985855936,
      "semi_major_axis_km": 6843.555917017769,
      "eccentricity": 4.055e-05,
      "inclination_deg": 97.2832,
      "raan_deg": 149.7495,
      "arg_perigee_deg": 230.8473,
      "mean_anomaly_deg": 129.2734,
      "mean_motion_rev_day": 15.33486764
    },
    {
      "epoch": "2026-04-05T15:31:21.829152Z",
      "apogee_km": 466.9959388873667,
      "perigee_km": 464.08874390314213,
      "latitude_deg": 3.93907926677053e-05,
      "longitude_deg": 83.02495134818004,
      "height_km": 468.93058662079534,
      "semi_major_axis_km": 6843.679341395255,
      "eccentricity": 0.0002124,
      "inclination_deg": 97.2835,
      "raan_deg": 149.8153,
      "arg_perigee_deg": 101.0875,
      "mean_anomaly_deg": 259.0607,
      "mean_motion_rev_day": 15.3344528
    }
  ]
}